[{"OBJECT_NAME":"STARLINK-34111","OBJECT_ID":"2025-102V","EPOCH":"2026-03-09T16:00:03.000096","MEAN_MOTION":14.98337597,"ECCENTRICITY":0.00037957,"INCLINATION":69.9997,"RA_OF_ASC_NODE":114.558,"ARG_OF_PERICENTER":273.595,"MEAN_ANOMALY":224.4802,"EPHEMERIS_TYPE":0,"CLASSIFICATION_TYPE":"U","NORAD_CAT_ID":64041,"ELEMENT_SET_NO":999,"REV_AT_EPOCH":563,"BSTAR":-0.0013533714,"MEAN_MOTION_DOT":-0.00016208,"MEAN_MOTION_DDOT":0},{"OBJECT_NAME":"UNKNOWN","OBJECT_ID":"","EPOCH":"2026-03-07T08:31:28.132608","MEAN_MOTION":13.62091848,"ECCENTRICITY":0.0674129,"INCLINATION":65.8255,"RA_OF_ASC_NODE":26.5059,"ARG_OF_PERICENTER":266.24,"MEAN_ANOMALY":170.5998,"EPHEMERIS_TYPE":0,"CLASSIFICATION_TYPE":"U","NORAD_CAT_ID":87517,"ELEMENT_SET_NO":999,"REV_AT_EPOCH":60443,"BSTAR":0.0013224,"MEAN_MOTION_DOT":4.838e-5,"MEAN_MOTION_DDOT":0}]
